1 25933U 99055A   21001.53385317 -.00000061  00000-0  00000-0 0  9997
2 25933  52.3722  21.4814 0152356 119.5798 293.3785  2.00556768155611
1 25933U 99055A   21001.69556878 -.00000061  00000-0  00000+0 0  9995
2 25933  52.3722  21.4744 0152348 119.5815  50.1407  2.00556761155606
1 25933U 99055A   21001.69556878 -.00000061  00000-0  00000-0 0  9996
2 25933  52.3722  21.4744 0152348 119.5815  50.1407  2.00556761155617
1 25933U 99055A   21002.67303191 -.00000061  00000-0  00000-0 0  9993
2 25933  52.3725  21.4324 0152312 119.5929  35.8887  2.00556720155630
1 25933U 99055A   21003.06530247 -.00000061  00000-0  00000-0 0  9991
2 25933  52.3726  21.4155 0152298 119.5979 319.1156  2.00556705155642
1 25933U 99055A   21003.71732860 -.00000061  00000-0  00000-0 0  9998
2 25933  52.3728  21.3874 0152275 119.6047  69.8924  2.00556682155650
1 25933U 99055A   21004.60414187 -.00000062  00000-0  00000-0 0  9997
2 25933  52.3731  21.3493 0152244 119.6156 350.1889  2.00556653155663
1 25933U 99055A   21005.56510494 -.00000063  00000-0  00000-0 0  9992
2 25933  52.3734  21.3079 0152213 119.6269 324.0234  2.00556627155695
1 25933U 99055A   21005.66468525 -.00000063  00000-0  00000-0 0  9990
2 25933  52.3734  21.3036 0152209 119.6269  35.9235  2.00556624155699
1 25933U 99055A   21006.57847700 -.00000065  00000-0  00000-0 0  9999
2 25933  52.3737  21.2643 0152180 119.6376 335.6993  2.00556605155715
1 25933U 99055A   21006.66389606 -.00000065  00000-0  00000-0 0  9995
2 25933  52.3737  21.2606 0152176 119.6375  37.3748  2.00556602155719
1 25933U 99055A   21007.45832725 -.00000067  00000-0  00000-0 0  9990
2 25933  52.3739  21.2264 0152154 119.6475 250.9692  2.00556590155737
1 25933U 99055A   21007.66320550 -.00000067  00000-0  00000-0 0  9991
2 25933  52.3740  21.2176 0152145 119.6487  38.8966  2.00556587155737
1 25933U 99055A   21008.55577248 -.00000070  00000-0  00000-0 0  9992
2 25933  52.3743  21.1792 0152117 119.6599 323.3469  2.00556580155751
1 25933U 99055A   21008.71389986 -.00000071  00000-0  00000-0 0  9991
2 25933  52.3743  21.1724 0152114 119.6606  77.5192  2.00556578155750
1 25933U 99055A   21009.61414118 -.00000074  00000-0  00000-0 0  9990
2 25933  52.3746  21.1336 0152085 119.6717   7.5108  2.00556578155774
1 25933U 99055A   21009.67352405 -.00000074  00000-0  00000-0 0  9996
2 25933  52.3746  21.1311 0152084 119.6717  50.3871  2.00556577155778
1 25933U 99055A   21010.43621809 -.00000078  00000-0  00000-0 0  9993
2 25933  52.3748  21.0982 0152063 119.6816 241.0661  2.00556580155781
1 25933U 99055A   21010.67913104 -.00000079  00000-0  00000-0 0  9992
2 25933  52.3749  21.0878 0152053 119.6831  56.4556  2.00556582155796
1 25933U 99055A   21011.56472304 -.00000083  00000-0  00000-0 0  9998
2 25933  52.3751  21.0497 0152025 119.6944 335.8696  2.00556593155814
1 25933U 99055A   21011.65314132 -.00000083  00000-0  00000-0 0  9992
2 25933  52.3751  21.0459 0152022 119.6948  39.7101  2.00556594155815
1 25933U 99055A   21012.58338556 -.00000088  00000-0  00000-0 0  9996
2 25933  52.3754  21.0058 0151993 119.7054 351.3650  2.00556609155839
1 25933U 99055A   21012.64943145 -.00000088  00000-0  00000-0 0  9999
2 25933  52.3754  21.0030 0151991 119.7056  39.0520  2.00556609155835
1 25933U 99055A   21013.54223917 -.00000092  00000-0  00000-0 0  9992
2 25933  52.3757  20.9646 0151964 119.7152 323.6777  2.00556628155855
1 25933U 99055A   21013.64778644 -.00000092  00000-0  00000-0 0  9995
2 25933  52.3757  20.9600 0151961 119.7159  39.8855  2.00556629155853
1 25933U 99055A   21014.51060198 -.00000095  00000-0  00000-0 0  9993
2 25933  52.3759  20.9229 0151935 119.7254 302.8559  2.00556649155877
1 25933U 99055A   21014.66795066 -.00000095  00000-0  00000-0 0  9998
2 25933  52.3760  20.9161 0151931 119.7268  56.4653  2.00556653155877
1 25933U 99055A   21015.64174390 -.00000096  00000-0  00000-0 0  9999
2 25933  52.3763  20.8742 0151902 119.7374  39.5641  2.00556677155897
1 25933U 99055A   21015.67654979 -.00000096  00000-0  00000-0 0  9998
2 25933  52.3763  20.8727 0151900 119.7380  64.6945  2.00556677155891
1 25933U 99055A   21016.49869152 -.00000096  00000-0  00000-0 0  9990
2 25933  52.3765  20.8374 0151875 119.7469 298.2977  2.00556698155916
1 25933U 99055A   21016.68529214 -.00000096  00000-0  00000-0 0  9993
2 25933  52.3766  20.8293 0151870 119.7496  73.0267  2.00556702155919
1 25933U 99055A   21017.63655309 -.00000095  00000-0  00000-0 0  9993
2 25933  52.3768  20.7884 0151842 119.7602  39.8564  2.00556722155938
1 25933U 99055A   21018.11897222 -.00000093  00000-0  00000-0 0  9997
2 25933  52.3770  20.7677 0151828 119.7659  28.1726  2.00556732155940
1 25933U 99055A   21018.65568189 -.00000092  00000-0  00000-0 0  9992
2 25933  52.3771  20.7446 0151811 119.7723  55.6875  2.00556740155959
1 25933U 99055A   21019.63063516 -.00000088  00000-0  00000-0 0  9990
2 25933  52.3774  20.7027 0151781 119.7837  39.6231  2.00556749155967
1 25933U 99055A   21020.62835385 -.00000084  00000-0  00000-0 0  9998
2 25933  52.3777  20.6598 0151750 119.7952  39.9958  2.00556753155993
1 25933U 99055A   21020.67581983 -.00000084  00000-0  00000-0 0  9995
2 25933  52.3777  20.6577 0151747 119.7962  74.2668  2.00556753155997
1 25933U 99055A   21021.68174132 -.00000080  00000-0  00000-0 0  9997
2 25933  52.3780  20.6145 0151716 119.8064  80.5635  2.00556747156013
1 25933U 99055A   21022.62266897 -.00000076  00000-0  00000-0 0  9997
2 25933  52.3782  20.5740 0151689 119.8157  39.9335  2.00556734156030
1 25933U 99055A   21023.61981972 -.00000072  00000-0  00000-0 0  9991
2 25933  52.3785  20.5311 0151660 119.8255  39.8979  2.00556711156055
1 25933U 99055A   21024.54246760 -.00000068  00000-0  00000-0 0  9998
2 25933  52.3788  20.4915 0151636 119.8338 346.0701  2.00556684156079
1 25933U 99055A   21024.68556278 -.00000068  00000-0  00000+0 0  9990
2 25933  52.3788  20.4853 0151630 119.8360  89.3872  2.00556680156060
1 25933U 99055A   21024.68556278 -.00000068  00000-0  00000-0 0  9991
2 25933  52.3788  20.4853 0151630 119.8360  89.3872  2.00556680156071
1 25933U 99055A   21025.61363953 -.00000065  00000-0  00000-0 0  9998
2 25933  52.3791  20.4454 0151607 119.8454  39.4782  2.00556649156093
1 25933U 99055A   21026.61112737 -.00000063  00000-0  00000-0 0  9999
2 25933  52.3793  20.4026 0151582 119.8549  39.6861  2.00556610156118
1 25933U 99055A   21026.67662150 -.00000063  00000-0  00000-0 0  9994
2 25933  52.3794  20.3998 0151580 119.8555  86.9743  2.00556607156111
1 25933U 99055A   21027.03977573 -.00000062  00000-0  00000+0 0  9991
2 25933  52.3795  20.3841 0151573 119.8590 349.1794  2.00556592156113
1 25933U 99055A   21027.61592407 -.00000061  00000-0  00000-0 0  9994
2 25933  52.3796  20.3594 0151558 119.8644  45.1710  2.00556567156137
1 25933U 99055A   21028.60575565 -.00000060  00000-0  00000-0 0  9999
2 25933  52.3799  20.3168 0151536 119.8736  39.8509  2.00556526156158
1 25933U 99055A   21029.60562513 -.00000060  00000-0  00000-0 0  9999
2 25933  52.3801  20.2738 0151378 119.3866  42.1763  2.00516656156178
1 25933U 99055A   21029.65138160 -.00000060  00000-0  00000+0 0  9990
2 25933  52.3801  20.2719 0151378 119.3866  75.2074  2.00516662156165
1 25933U 99055A   21029.65138160 -.00000060  00000-0  00000-0 0  9991
2 25933  52.3801  20.2719 0151378 119.3866  75.2074  2.00516662156176
1 25933U 99055A   21030.61208832 -.00000060  00000-0  00000-0 0  9993
2 25933  52.3804  20.2307 0151361 119.3947  48.7215  2.00516667156193
1 25933U 99055A   21031.88086056 -.00000061  00000-0  00000-0 0  9996
2 25933  52.3808  20.1762 0151342 119.4046 244.6223  2.00516616156225
1 25933U 99055A   21032.62446483 -.00000062  00000-0  00000-0 0  9994
2 25933  52.3810  20.1442 0151328 119.4100  61.4156  2.00516589156238
1 25933U 99055A   21033.59274314 -.00000063  00000-0  00000-0 0  9994
2 25933  52.3812  20.1027 0151311 119.4196  40.3939  2.00516568156250
1 25933U 99055A   21033.63994343 -.00000063  00000-0  00000-0 0  9990
2 25933  52.3812  20.1006 0151311 119.4195  74.4673  2.00516566156257
1 25933U 99055A   21034.59072443 -.00000066  00000-0  00000-0 0  9997
2 25933  52.3815  20.0598 0151297 119.4275  40.8161  2.00516545156275
1 25933U 99055A   21035.58830178 -.00000069  00000-0  00000-0 0  9997
2 25933  52.3817  20.0169 0151281 119.4373  40.9448  2.00516532156290
1 25933U 99055A   21036.58551303 -.00000073  00000-0  00000-0 0  9993
2 25933  52.3820  19.9740 0151267 119.4466  40.8096  2.00516526156317
1 25933U 99055A   21036.66986156 -.00000073  00000-0  00000-0 0  9990
2 25933  52.3820  19.9704 0151268 119.4473 101.6990  2.00516525156314
1 25933U 99055A   21037.60469345 -.00000078  00000-0  00000-0 0  9996
2 25933  52.3822  19.9302 0151253 119.4564  56.5331  2.00516526156335
1 25933U 99055A   21037.62783358 -.00000078  00000-0  00000-0 0  9991
2 25933  52.3822  19.9292 0151253 119.4566  73.2376  2.00516526156330
1 25933U 99055A   21038.61311657 -.00000083  00000-0  00000-0 0  9996
2 25933  52.3825  19.8869 0151238 119.4655  64.4919  2.00516530156356
1 25933U 99055A   21039.58986013 -.00000088  00000-0  00000-0 0  9992
2 25933  52.3827  19.8449 0151222 119.4770  49.5791  2.00516544156372
1 25933U 99055A   21039.64686319 -.00000088  00000-0  00000-0 0  9995
2 25933  52.3827  19.8425 0151222 119.4775  90.7284  2.00516543156375
1 25933U 99055A   21040.59762900 -.00000093  00000-0  00000-0 0  9998
2 25933  52.3829  19.8016 0151208 119.4869  57.0646  2.00516557156385
1 25933U 99055A   21041.58482122 -.00000096  00000-0  00000-0 0  9996
2 25933  52.3832  19.7592 0151195 119.4961  49.6967  2.00516574156411
1 25933U 99055A   21041.66731153 -.00000097  00000-0  00000-0 0  9997
2 25933  52.3832  19.7557 0151194 119.4971 109.2444  2.00516575156416
1 25933U 99055A   21042.58014382 -.00000099  00000-0  00000-0 0  9999
2 25933  52.3834  19.7165 0151182 119.5057  48.1977  2.00516593156430
1 25933U 99055A   21042.62320654 -.00000099  00000-0  00000-0 0  9996
2 25933  52.3834  19.7146 0151181 119.5064  79.2835  2.00516594156435
1 25933U 99055A   21043.58042047 -.00000100  00000-0  00000-0 0  9992
2 25933  52.3837  19.6735 0151170 119.5152  50.2750  2.00516612156455
1 25933U 99055A   21043.63005368 -.00000100  00000-0  00000-0 0  9993
2 25933  52.3837  19.6714 0151169 119.5157  86.1041  2.00516612156456
1 25933U 99055A   21044.46600300 -.00000099  00000-0  00000-0 0  9999
2 25933  52.3839  19.6355 0151159 119.5234 329.5573  2.00516627156476
1 25933U 99055A   21044.64426980 -.00000099  00000-0  00000-0 0  9999
2 25933  52.3839  19.6278 0151156 119.5258  98.2435  2.00516628156471
1 25933U 99055A   21045.58606199 -.00000097  00000-0  00000-0 0  9993
2 25933  52.3841  19.5874 0151145 119.5353  58.1016  2.00516641156496
1 25933U 99055A   21046.57645021 -.00000094  00000-0  00000-0 0  9997
2 25933  52.3844  19.5449 0151130 119.5468  53.0386  2.00516650156515
1 25933U 99055A   21047.58546236 -.00000091  00000-0  00000-0 0  9994
2 25933  52.3846  19.5016 0151116 119.5576  61.4206  2.00516650156537
1 25933U 99055A   21048.57108829 -.00000087  00000-0  00000-0 0  9991
2 25933  52.3849  19.4592 0151101 119.5673  52.9213  2.00516641156555
1 25933U 99055A   21048.62640448 -.00000087  00000-0  00000-0 0  9995
2 25933  52.3849  19.4569 0151099 119.5682  92.8525  2.00516640156553
1 25933U 99055A   21049.58053652 -.00000083  00000-0  00000-0 0  9992
2 25933  52.3851  19.4159 0151087 119.5779  61.6183  2.00516625156574
1 25933U 99055A   21049.82531660 -.00000082  00000-0  00000-0 0  9998
2 25933  52.3851  19.4054 0151082 119.5784 238.3213  2.00516619156579
